[{"OBJECT_NAME":"STARLINK-3501","OBJECT_ID":"2022-016AL","EPOCH":"2026-03-09T23:21:25.524576","MEAN_MOTION":15.0883978,"ECCENTRICITY":0.00014192,"INCLINATION":53.2188,"RA_OF_ASC_NODE":307.8528,"ARG_OF_PERICENTER":95.3022,"MEAN_ANOMALY":264.8133,"EPHEMERIS_TYPE":0,"CLASSIFICATION_TYPE":"U","NORAD_CAT_ID":51748,"ELEMENT_SET_NO":999,"REV_AT_EPOCH":22374,"BSTAR":-6.4429396e-5,"MEAN_MOTION_DOT":-1.313e-5,"MEAN_MOTION_DDOT":0},{"OBJECT_NAME":"NOAA 17 DEB","OBJECT_ID":"2002-032W","EPOCH":"2026-03-09T23:34:50.358720","MEAN_MOTION":15.06684432,"ECCENTRICITY":0.0012716,"INCLINATION":98.7039,"RA_OF_ASC_NODE":76.0065,"ARG_OF_PERICENTER":104.6864,"MEAN_ANOMALY":255.577,"EPHEMERIS_TYPE":0,"CLASSIFICATION_TYPE":"U","NORAD_CAT_ID":48181,"ELEMENT_SET_NO":999,"REV_AT_EPOCH":26088,"BSTAR":0.0078736038,"MEAN_MOTION_DOT":0.00118919,"MEAN_MOTION_DDOT":0}]
